ONEWEB-0620             
1 55161U 23004X   24347.43625342 -.00000511  00000+0 -14777-2 0  9992
2 55161  87.8892 131.0421 0001678 115.2340 244.8962 13.11415403 93518
ONEWEB-0621             
1 55162U 23004Y   24347.84489012  .00000301  00000+0  81447-3 0  9994
2 55162  87.8892 130.9244 0001740  92.8410 267.2917 13.11417008 93543
ONEWEB-0622             
1 55163U 23004Z   24347.69738464  .00000506  00000+0  13930-2 0  9994
2 55163  87.8892 130.9731 0002230 113.2615 246.8748 13.11417243 93518
ONEWEB-0624             
1 55165U 23004AB  24347.77138528  .00000454  00000+0  12258-2 0  9994
2 55165  87.8890 100.4595 0001772 103.4367 256.6959 13.12442150 95727
ONEWEB-0625             
1 55166U 23004AC  24347.78738426 -.00000014  00000+0 -68261-4 0  9990
2 55166  87.9092 115.7397 0001512  94.7831 265.3473 13.17648606 94964
ONEWEB-0626             
1 55167U 23004AD  24347.77724007 -.00000157  00000+0 -43788-3 0  9994
2 55167  87.9096 115.7410 0001379 118.9688 241.1582 13.17647174 94967
ONEWEB-0627             
1 55168U 23004AE  24347.61355821 -.00000059  00000+0 -18527-3 0  9996
2 55168  87.9099 115.7757 0002188 108.8004 251.3365 13.17647957 94943
